NORAD_CAT_ID,OBJECT_NAME,OBJECT_TYPE,EPOCH,MEAN_MOTION,ECCENTRICITY,INCLINATION,RA_OF_ASC_NODE,ARG_OF_PERICENTER,MEAN_ANOMALY,BSTAR,MEAN_MOTION_DOT,MEAN_MOTION_DDOT,TLE_LINE0,TLE_LINE1,TLE_LINE2,SEMIMAJOR_AXIS,PERIOD,APOGEE,PERIGEE,DECAYED
53600.0,STARLINK-4677,PAYLOAD,2024-07-21 19:48:06,15.08835431,0.0001545,53.2175,39.462,112.9965,247.119,0.00029007,4.331e-05,0.0,0 STARLINK-4677,1 53600U 22104N   24203.82507373  .00004331  00000-0  29007-3 0  9991,2 53600  53.2175  39.4620 0001545 112.9965 247.1190 15.08835431105379,6917.894,95.438,540.828,538.691,0.0
53600.0,STARLINK-4677,PAYLOAD,2024-07-22 22:49:40,15.08815382,0.000187,53.2179,34.4058,114.793,245.3256,0.00090746,0.00014174,0.0,0 STARLINK-4677,1 53600U 22104N   24204.95116574  .00014174  00000-0  90746-3 0  9999,2 53600  53.2179  34.4058 0001870 114.7930 245.3256 15.08815382105822,6917.956,95.439,541.114,538.527,0.0
53600.0,STARLINK-4677,PAYLOAD,2024-07-23 05:11:11,15.08842292,0.0001428,53.2185,33.2203,98.3575,261.7579,3.6069e-05,2.86e-06,0.0,0 STARLINK-4677,1 53600U 22104N   24205.21611001  .00000286  00000-0  36069-4 0  9992,2 53600  53.2185  33.2203 0001428  98.3575 261.7579 15.08842292105582,6917.873,95.437,540.726,538.751,0.0
53600.0,STARLINK-4677,PAYLOAD,2024-07-23 13:08:08,15.08834671,0.0001656,53.2199,31.7347,92.9057,267.2125,7.6987e-06,-1.66e-06,0.0,0 STARLINK-4677,1 53600U 22104N   24205.54731558 -.00000166  00000-0  76987-5 0  9990,2 53600  53.2199  31.7347 0001656  92.9057 267.2125 15.08834671105633,6917.897,95.438,540.907,538.616,0.0
53600.0,STARLINK-4677,PAYLOAD,2024-07-23 22:40:27,15.08827792,0.0001559,53.219,29.9515,84.6096,275.5074,0.00018603,2.673e-05,0.0,0 STARLINK-4677,1 53600U 22104N   24205.94476162  .00002673  00000-0  18603-3 0  9994,2 53600  53.2190  29.9515 0001559  84.6096 275.5074 15.08827792105690,6917.918,95.438,540.861,538.704,0.0
53600.0,STARLINK-4677,PAYLOAD,2024-07-24 12:58:55,15.08830553,0.0001775,53.2186,27.2752,94.4275,265.692,7.5968e-05,9.21e-06,0.0,0 STARLINK-4677,1 53600U 22104N   24206.54092228  .00000921  00000-0  75968-4 0  9990,2 53600  53.2186  27.2752 0001775  94.4275 265.6920 15.08830553106068,6917.909,95.438,541.002,538.546,0.0
53600.0,STARLINK-4677,PAYLOAD,2024-07-24 20:55:50,15.08842465,0.0001444,53.2185,25.785,88.0086,272.1071,8.279e-05,1.03e-05,0.0,0 STARLINK-4677,1 53600U 22104N   24206.87211586  .00001030  00000-0  82790-4 0  9999,2 53600  53.2185  25.7850 0001444  88.0086 272.1071 15.08842465105830,6917.873,95.437,540.737,538.739,0.0
53600.0,STARLINK-4677,PAYLOAD,2024-07-25 11:14:19,15.08841857,0.0001385,53.2157,23.1095,101.8049,258.3098,8.187e-05,1.015e-05,0.0,0 STARLINK-4677,1 53600U 22104N   24207.46827589  .00001015  00000-0  81870-4 0  9992,2 53600  53.2157  23.1095 0001385 101.8049 258.3098 15.08841857106200,6917.875,95.437,540.698,538.782,0.0
53600.0,STARLINK-4677,PAYLOAD,2024-07-26 04:43:34,15.08811954,0.0001533,53.2161,19.8416,94.2389,265.8779,0.0005844,9.018e-05,0.0,0 STARLINK-4677,1 53600U 22104N   24208.19692408  .00009018  00000-0  58440-3 0  9990,2 53600  53.2161  19.8416 0001533  94.2389 265.8779 15.08811954106036,6917.966,95.439,540.892,538.771,0.0
53600.0,STARLINK-4677,PAYLOAD,2024-07-26 20:37:24,15.08852256,0.0001394,53.2157,16.867,93.321,266.7941,0.00011666,1.57e-05,0.0,0 STARLINK-4677,1 53600U 22104N   24208.85930641  .00001570  00000-0  11666-3 0  9991,2 53600  53.2157  16.8670 0001394  93.3210 266.7941 15.08852256106130,6917.843,95.437,540.672,538.744,0.0
53600.0,STARLINK-4677,PAYLOAD,2024-07-26 22:12:46,15.08864599,0.0001237,53.2175,16.5703,97.7247,262.3886,0.00022076,3.23e-05,0.0,0 STARLINK-4677,1 53600U 22104N   24208.92553536  .00003230  00000-0  22076-3 0  9995,2 53600  53.2175  16.5703 0001237  97.7247 262.3886 15.08864599106142,6917.805,95.436,540.526,538.814,0.0
53600.0,STARLINK-4677,PAYLOAD,2024-07-27 10:55:53,15.08833213,0.0001386,53.2176,14.1893,96.056,264.059,-6.2414e-05,-1.281e-05,0.0,0 STARLINK-4677,1 53600U 22104N   24209.45548345 -.00001281  00000-0 -62414-4 0  9993,2 53600  53.2176  14.1893 0001386  96.0560 264.0590 15.08833213106221,6917.901,95.438,540.725,538.807,0.0
53600.0,STARLINK-4677,PAYLOAD,2024-07-27 22:03:35,15.08837653,0.0001722,53.2148,12.1081,90.3427,269.7762,-8.8457e-06,-4.29e-06,0.0,0 STARLINK-4677,1 53600U 22104N   24209.91916001 -.00000429  00000-0 -88457-5 0  9991,2 53600  53.2148  12.1081 0001722  90.3427 269.7762 15.08837653106292,6917.888,95.438,540.944,538.561,0.0
53600.0,STARLINK-4677,PAYLOAD,2024-07-28 15:32:49,15.08847486,0.0001733,53.2167,8.8399,86.8155,273.3035,2.043e-05,3.7e-07,0.0,0 STARLINK-4677,1 53600U 22104N   24210.64779315  .00000037  00000-0  20430-4 0  9997,2 53600  53.2167   8.8399 0001733  86.8155 273.3035 15.08847486106409,6917.858,95.437,540.921,538.524,0.0
53600.0,STARLINK-4677,PAYLOAD,2024-07-29 20:09:45,15.08845306,0.0001313,53.2185,3.4847,95.2996,264.8146,0.00012902,1.766e-05,0.0,0 STARLINK-4677,1 53600U 22104N   24211.84011187  .00001766  00000-0  12902-3 0  9990,2 53600  53.2185   3.4847 0001313  95.2996 264.8146 15.08845306106585,6917.864,95.437,540.637,538.821,0.0
53600.0,STARLINK-4677,PAYLOAD,2024-07-30 10:28:15,15.08820721,0.0001509,53.2184,0.8075,95.6417,264.4747,0.00029186,4.358e-05,0.0,0 STARLINK-4677,1 53600U 22104N   24212.43628773  .00004358  00000-0  29186-3 0  9993,2 53600  53.2184   0.8075 0001509  95.6417 264.4747 15.08820721106674,6917.939,95.439,540.848,538.76,0.0
53600.0,STARLINK-4677,PAYLOAD,2024-07-30 20:00:33,15.08832223,0.0001469,53.2194,359.021,100.989,259.1267,0.00030375,4.549e-05,0.0,0 STARLINK-4677,1 53600U 22104N   24212.83371831  .00004549  00000-0  30375-3 0  9991,2 53600  53.2194 359.0210 0001469 100.9890 259.1267 15.08832223106730,6917.904,95.438,540.785,538.753,0.0
53600.0,STARLINK-4677,PAYLOAD,2024-07-31 02:22:06,15.08837828,0.0002019,53.2194,357.8306,68.9823,291.1385,-2.738e-05,-7.24e-06,0.0,0 STARLINK-4677,1 53600U 22104N   24213.09868314 -.00000724  00000-0 -27380-4 0  9993,2 53600  53.2194 357.8306 0002019  68.9823 291.1385 15.08837828107052,6917.887,95.438,541.149,538.355,0.0
53600.0,STARLINK-4677,PAYLOAD,2024-07-31 16:40:33,15.08902047,4.52e-05,53.2191,355.1643,204.5942,155.5028,-0.00098755,-0.00015996,0.0,0 STARLINK-4677,1 53600U 22104N   24213.69483404 -.00015996  00000-0 -98755-3 0  9992,2 53600  53.2191 355.1643 0000452 204.5942 155.5028 15.08902047106864,6917.691,95.434,539.868,539.243,0.0
53600.0,STARLINK-4677,PAYLOAD,2024-08-01 02:12:53,15.08842229,0.0001163,53.2178,353.3769,96.3854,263.727,-5.1628e-05,-1.109e-05,0.0,0 STARLINK-4677,1 53600U 22104N   24214.09228235 -.00001109  00000-0 -51628-4 0  9996,2 53600  53.2178 353.3769 0001163  96.3854 263.7270 15.08842229106920,6917.874,95.437,540.543,538.934,0.0
53600.0,STARLINK-4677,PAYLOAD,2024-08-01 10:09:48,15.08900881,8.94e-05,53.2183,351.8903,105.1112,254.9979,-0.00089622,-0.00014546,0.0,0 STARLINK-4677,1 53600U 22104N   24214.42347486 -.00014546  00000-0 -89622-3 0  9996,2 53600  53.2183 351.8903 0000894 105.1112 254.9979 15.08900881106977,6917.694,95.434,540.178,538.941,0.0
53600.0,STARLINK-4677,PAYLOAD,2024-08-01 18:06:44,15.0884592,0.0001839,53.2171,350.3966,81.8525,278.2676,0.00019935,2.886e-05,0.0,0 STARLINK-4677,1 53600U 22104N   24214.75467988  .00002886  00000-0  19935-3 0  9994,2 53600  53.2171 350.3966 0001839  81.8525 278.2676 15.08845920107027,6917.862,95.437,540.999,538.455,0.0
53600.0,STARLINK-4677,PAYLOAD,2024-08-02 02:03:41,15.08829084,0.0001738,53.2188,348.9142,88.9049,271.2142,0.00014704,2.052e-05,0.0,0 STARLINK-4677,1 53600U 22104N   24215.08589162  .00002052  00000-0  14704-3 0  9994,2 53600  53.2188 348.9142 0001738  88.9049 271.2142 15.08829084107070,6917.914,95.438,540.981,538.576,0.0
53600.0,STARLINK-4677,PAYLOAD,2024-08-02 13:11:23,15.08826637,0.0001546,53.2189,346.8298,83.2403,276.8765,0.0001283,1.754e-05,0.0,0 STARLINK-4677,1 53600U 22104N   24215.54957720  .00001754  00000-0  12830-3 0  9990,2 53600  53.2189 346.8298 0001546  83.2403 276.8765 15.08826637107421,6917.921,95.438,540.856,538.717,0.0
53600.0,STARLINK-4677,PAYLOAD,2024-08-02 16:22:08,15.08845526,0.0001274,53.2182,346.2397,97.6864,262.4273,0.00015922,2.247e-05,0.0,0 STARLINK-4677,1 53600U 22104N   24215.68204489  .00002247  00000-0  15922-3 0  9995,2 53600  53.2182 346.2397 0001274  97.6864 262.4273 15.08845526107160,6917.863,95.437,540.61,538.847,0.0
53600.0,STARLINK-4677,PAYLOAD,2024-08-03 14:37:32,15.08848295,0.0001306,53.2157,342.0774,94.4082,265.7059,0.00017035,2.425e-05,0.0,0 STARLINK-4677,1 53600U 22104N   24216.60940158  .00002425  00000-0  17035-3 0  9993,2 53600  53.2157 342.0774 0001306  94.4082 265.7059 15.08848295107588,6917.855,95.437,540.624,538.817,0.0
53600.0,STARLINK-4677,PAYLOAD,2024-08-03 17:48:17,15.08866631,0.0001442,53.2186,341.479,98.7105,261.4051,0.00017625,2.52e-05,0.0,0 STARLINK-4677,1 53600U 22104N   24216.74186786  .00002520  00000-0  17625-3 0  9998,2 53600  53.2186 341.4790 0001442  98.7105 261.4051 15.08866631107326,6917.799,95.436,540.662,538.666,0.0
53600.0,STARLINK-4677,PAYLOAD,2024-08-04 01:45:15,15.08834443,0.000221,53.2185,339.9928,85.5049,274.6195,2.6855e-05,1.39e-06,0.0,0 STARLINK-4677,1 53600U 22104N   24217.07309426  .00000139  00000-0  26855-4 0  9993,2 53600  53.2185 339.9928 0002210  85.5049 274.6195 15.08834443107371,6917.897,95.438,541.291,538.234,0.0
53600.0,STARLINK-4677,PAYLOAD,2024-08-04 14:28:20,15.08836178,0.0001755,53.218,337.613,89.0094,271.1099,5.2056e-05,5.4e-06,0.0,0 STARLINK-4677,1 53600U 22104N   24217.60301311  .00000540  00000-0  52056-4 0  9995,2 53600  53.2180 337.6130 0001755  89.0094 271.1099 15.08836178107730,6917.892,95.438,540.971,538.543,0.0
53600.0,STARLINK-4677,PAYLOAD,2024-08-04 17:39:05,15.08848414,0.0001714,53.2179,337.0162,91.3346,268.7842,5.6656e-05,6.14e-06,0.0,0 STARLINK-4677,1 53600U 22104N   24217.73548386  .00000614  00000-0  56656-4 0  9996,2 53600  53.2179 337.0162 0001714  91.3346 268.7842 15.08848414107473,6917.855,95.437,540.905,538.534,0.0
